[{"CCSDS_OMM_VERS":"2.0","COMMENT":"GENERATED VIA SPACE-TRACK.ORG API","CREATION_DATE":"2023-06-21T22:36:13","ORIGINATOR":"18 SPCS","OBJECT_NAME":"STARLINK-1098","OBJECT_ID":"2020-001D","CENTER_NAME":"EARTH","REF_FRAME":"TEME","TIME_SYSTEM":"UTC","MEAN_ELEMENT_THEORY":"SGP4","EPOCH":"2023-06-21T13:37:59.194272","MEAN_MOTION":"15.06394230","ECCENTRICITY":"0.00011480","INCLINATION":"53.0530","RA_OF_ASC_NODE":"120.4256","ARG_OF_PERICENTER":"91.6466","MEAN_ANOMALY":"268.4655","EPHEMERIS_TYPE":"0","CLASSIFICATION_TYPE":"U","NORAD_CAT_ID":"44917","ELEMENT_SET_NO":"999","REV_AT_EPOCH":"19031","BSTAR":"0.00077213000000","MEAN_MOTION_DOT":"0.00011236","MEAN_MOTION_DDOT":"0.0000000000000","SEMIMAJOR_AXIS":"6925.366","PERIOD":"95.593","APOAPSIS":"548.026","PERIAPSIS":"546.436","OBJECT_TYPE":"PAYLOAD","RCS_SIZE":"LARGE","COUNTRY_CODE":"US","LAUNCH_DATE":"2020-01-07","SITE":"AFETR","DECAY_DATE":null,"FILE":"3939294","GP_ID":"234442640","TLE_LINE0":"0 STARLINK-1098","TLE_LINE1":"1 44917U 20001D   23172.56804623  .00011236  00000-0  77213-3 0  9993","TLE_LINE2":"2 44917  53.0530 120.4256 0001148  91.6466 268.4655 15.06394230190312"},{"CCSDS_OMM_VERS":"2.0","COMMENT":"GENERATED VIA SPACE-TRACK.ORG API","CREATION_DATE":"2023-06-22T23:16:14","ORIGINATOR":"18 SPCS","OBJECT_NAME":"STARLINK-1098","OBJECT_ID":"2020-001D","CENTER_NAME":"EARTH","REF_FRAME":"TEME","TIME_SYSTEM":"UTC","MEAN_ELEMENT_THEORY":"SGP4","EPOCH":"2023-06-22T13:31:05.013408","MEAN_MOTION":"15.06394614","ECCENTRICITY":"0.00016760","INCLINATION":"53.0535","RA_OF_ASC_NODE":"115.9581","ARG_OF_PERICENTER":"83.9072","MEAN_ANOMALY":"276.2108","EPHEMERIS_TYPE":"0","CLASSIFICATION_TYPE":"U","NORAD_CAT_ID":"44917","ELEMENT_SET_NO":"999","REV_AT_EPOCH":"19046","BSTAR":"0.00026273000000","MEAN_MOTION_DOT":"0.00003633","MEAN_MOTION_DDOT":"0.0000000000000","SEMIMAJOR_AXIS":"6925.365","PERIOD":"95.592","APOAPSIS":"548.391","PERIAPSIS":"546.069","OBJECT_TYPE":"PAYLOAD","RCS_SIZE":"LARGE","COUNTRY_CODE":"US","LAUNCH_DATE":"2020-01-07","SITE":"AFETR","DECAY_DATE":null,"FILE":"3940189","GP_ID":"234464438","TLE_LINE0":"0 STARLINK-1098","TLE_LINE1":"1 44917U 20001D   23173.56325247  .00003633  00000-0  26273-3 0  9996","TLE_LINE2":"2 44917  53.0535 115.9581 0001676  83.9072 276.2108 15.06394614190462"},{"CCSDS_OMM_VERS":"2.0","COMMENT":"GENERATED VIA SPACE-TRACK.ORG API","CREATION_DATE":"2023-06-24T06:56:13","ORIGINATOR":"18 SPCS","OBJECT_NAME":"STARLINK-1098","OBJECT_ID":"2020-001D","CENTER_NAME":"EARTH","REF_FRAME":"TEME","TIME_SYSTEM":"UTC","MEAN_ELEMENT_THEORY":"SGP4","EPOCH":"2023-06-24T02:08:29.119488","MEAN_MOTION":"15.06430761","ECCENTRICITY":"0.00011690","INCLINATION":"53.0530","RA_OF_ASC_NODE":"109.1075","ARG_OF_PERICENTER":"79.8667","MEAN_ANOMALY":"280.2453","EPHEMERIS_TYPE":"0","CLASSIFICATION_TYPE":"U","NORAD_CAT_ID":"44917","ELEMENT_SET_NO":"999","REV_AT_EPOCH":"19069","BSTAR":"0.00151170000000","MEAN_MOTION_DOT":"0.00022326","MEAN_MOTION_DDOT":"0.0000000000000","SEMIMAJOR_AXIS":"6925.254","PERIOD":"95.590","APOAPSIS":"547.929","PERIAPSIS":"546.310","OBJECT_TYPE":"PAYLOAD","RCS_SIZE":"LARGE","COUNTRY_CODE":"US","LAUNCH_DATE":"2020-01-07","SITE":"AFETR","DECAY_DATE":null,"FILE":"3941313","GP_ID":"234517865","TLE_LINE0":"0 STARLINK-1098","TLE_LINE1":"1 44917U 20001D   23175.08922592  .00022326  00000-0  15117-2 0  9995","TLE_LINE2":"2 44917  53.0530 109.1075 0001169  79.8667 280.2453 15.06430761190698"},{"CCSDS_OMM_VERS":"2.0","COMMENT":"GENERATED VIA SPACE-TRACK.ORG API","CREATION_DATE":"2023-06-25T07:06:14","ORIGINATOR":"18 SPCS","OBJECT_NAME":"STARLINK-1098","OBJECT_ID":"2020-001D","CENTER_NAME":"EARTH","REF_FRAME":"TEME","TIME_SYSTEM":"UTC","MEAN_ELEMENT_THEORY":"SGP4","EPOCH":"2023-06-25T02:01:34.987872","MEAN_MOTION":"15.06395787","ECCENTRICITY":"0.00012650","INCLINATION":"53.0530","RA_OF_ASC_NODE":"104.6405","ARG_OF_PERICENTER":"94.4042","MEAN_ANOMALY":"265.7091","EPHEMERIS_TYPE":"0","CLASSIFICATION_TYPE":"U","NORAD_CAT_ID":"44917","ELEMENT_SET_NO":"999","REV_AT_EPOCH":"19084","BSTAR":"0.00116370000000","MEAN_MOTION_DOT":"0.00017092","MEAN_MOTION_DDOT":"0.0000000000000","SEMIMAJOR_AXIS":"6925.361","PERIOD":"95.592","APOAPSIS":"548.103","PERIAPSIS":"546.350","OBJECT_TYPE":"PAYLOAD","RCS_SIZE":"LARGE","COUNTRY_CODE":"US","LAUNCH_DATE":"2020-01-07","SITE":"AFETR","DECAY_DATE":null,"FILE":"3942252","GP_ID":"234539346","TLE_LINE0":"0 STARLINK-1098","TLE_LINE1":"1 44917U 20001D   23176.08443273  .00017092  00000-0  11637-2 0  9997","TLE_LINE2":"2 44917  53.0530 104.6405 0001265  94.4042 265.7091 15.06395787190843"},{"CCSDS_OMM_VERS":"2.0","COMMENT":"GENERATED VIA SPACE-TRACK.ORG API","CREATION_DATE":"2023-06-26T06:56:13","ORIGINATOR":"18 SPCS","OBJECT_NAME":"STARLINK-1098","OBJECT_ID":"2020-001D","CENTER_NAME":"EARTH","REF_FRAME":"TEME","TIME_SYSTEM":"UTC","MEAN_ELEMENT_THEORY":"SGP4","EPOCH":"2023-06-26T01:54:39.300192","MEAN_MOTION":"15.06442198","ECCENTRICITY":"0.00013310","INCLINATION":"53.0536","RA_OF_ASC_NODE":"100.1731","ARG_OF_PERICENTER":"100.7418","MEAN_ANOMALY":"259.3721","EPHEMERIS_TYPE":"0","CLASSIFICATION_TYPE":"U","NORAD_CAT_ID":"44917","ELEMENT_SET_NO":"999","REV_AT_EPOCH":"19099","BSTAR":"0.00163000000000","MEAN_MOTION_DOT":"0.00024108","MEAN_MOTION_DDOT":"0.0000000000000","SEMIMAJOR_AXIS":"6925.219","PERIOD":"95.589","APOAPSIS":"548.006","PERIAPSIS":"546.162","OBJECT_TYPE":"PAYLOAD","RCS_SIZE":"LARGE","COUNTRY_CODE":"US","LAUNCH_DATE":"2020-01-07","SITE":"AFETR","DECAY_DATE":null,"FILE":"3943057","GP_ID":"234559049","TLE_LINE0":"0 STARLINK-1098","TLE_LINE1":"1 44917U 20001D   23177.07962153  .00024108  00000-0  16300-2 0  9998","TLE_LINE2":"2 44917  53.0536 100.1731 0001331 100.7418 259.3721 15.06442198190998"},{"CCSDS_OMM_VERS":"2.0","COMMENT":"GENERATED VIA SPACE-TRACK.ORG API","CREATION_DATE":"2023-06-26T22:56:11","ORIGINATOR":"18 SPCS","OBJECT_NAME":"STARLINK-1098","OBJECT_ID":"2020-001D","CENTER_NAME":"EARTH","REF_FRAME":"TEME","TIME_SYSTEM":"UTC","MEAN_ELEMENT_THEORY":"SGP4","EPOCH":"2023-06-26T11:27:54.077472","MEAN_MOTION":"15.06411923","ECCENTRICITY":"0.00030210","INCLINATION":"53.0531","RA_OF_ASC_NODE":"98.3843","ARG_OF_PERICENTER":"75.3441","MEAN_ANOMALY":"284.7882","EPHEMERIS_TYPE":"0","CLASSIFICATION_TYPE":"U","NORAD_CAT_ID":"44917","ELEMENT_SET_NO":"999","REV_AT_EPOCH":"19105","BSTAR":"0.00055905000000","MEAN_MOTION_DOT":"0.00008058","MEAN_MOTION_DDOT":"0.0000000000000","SEMIMAJOR_AXIS":"6925.312","PERIOD":"95.591","APOAPSIS":"549.269","PERIAPSIS":"545.085","OBJECT_TYPE":"PAYLOAD","RCS_SIZE":"LARGE","COUNTRY_CODE":"US","LAUNCH_DATE":"2020-01-07","SITE":"AFETR","DECAY_DATE":null,"FILE":"3943638","GP_ID":"234573703","TLE_LINE0":"0 STARLINK-1098","TLE_LINE1":"1 44917U 20001D   23177.47770923  .00008058  00000-0  55905-3 0  9995","TLE_LINE2":"2 44917  53.0531  98.3843 0003021  75.3441 284.7882 15.06411923191056"},{"CCSDS_OMM_VERS":"2.0","COMMENT":"GENERATED VIA SPACE-TRACK.ORG API","CREATION_DATE":"2023-06-27T06:46:12","ORIGINATOR":"18 SPCS","OBJECT_NAME":"STARLINK-1098","OBJECT_ID":"2020-001D","CENTER_NAME":"EARTH","REF_FRAME":"TEME","TIME_SYSTEM":"UTC","MEAN_ELEMENT_THEORY":"SGP4","EPOCH":"2023-06-27T03:23:18.807360","MEAN_MOTION":"15.06361727","ECCENTRICITY":"0.00013290","INCLINATION":"53.0534","RA_OF_ASC_NODE":"95.4077","ARG_OF_PERICENTER":"83.3101","MEAN_ANOMALY":"276.8039","EPHEMERIS_TYPE":"0","CLASSIFICATION_TYPE":"U","NORAD_CAT_ID":"44917","ELEMENT_SET_NO":"999","REV_AT_EPOCH":"19115","BSTAR":"0.00110210000000","MEAN_MOTION_DOT":"0.00016155","MEAN_MOTION_DDOT":"0.0000000000000","SEMIMAJOR_AXIS":"6925.466","PERIOD":"95.595","APOAPSIS":"548.251","PERIAPSIS":"546.410","OBJECT_TYPE":"PAYLOAD","RCS_SIZE":"LARGE","COUNTRY_CODE":"US","LAUNCH_DATE":"2020-01-07","SITE":"AFETR","DECAY_DATE":null,"FILE":"3943893","GP_ID":"234579844","TLE_LINE0":"0 STARLINK-1098","TLE_LINE1":"1 44917U 20001D   23178.14118990  .00016155  00000-0  11021-2 0  9997","TLE_LINE2":"2 44917  53.0534  95.4077 0001329  83.3101 276.8039 15.06361727191150"},{"CCSDS_OMM_VERS":"2.0","COMMENT":"GENERATED VIA SPACE-TRACK.ORG API","CREATION_DATE":"2023-06-28T14:46:13","ORIGINATOR":"18 SPCS","OBJECT_NAME":"STARLINK-1098","OBJECT_ID":"2020-001D","CENTER_NAME":"EARTH","REF_FRAME":"TEME","TIME_SYSTEM":"UTC","MEAN_ELEMENT_THEORY":"SGP4","EPOCH":"2023-06-28T03:16:25.119840","MEAN_MOTION":"15.06402222","ECCENTRICITY":"0.00012660","INCLINATION":"53.0530","RA_OF_ASC_NODE":"90.9396","ARG_OF_PERICENTER":"84.0518","MEAN_ANOMALY":"276.0615","EPHEMERIS_TYPE":"0","CLASSIFICATION_TYPE":"U","NORAD_CAT_ID":"44917","ELEMENT_SET_NO":"999","REV_AT_EPOCH":"19130","BSTAR":"0.00136350000000","MEAN_MOTION_DOT":"0.00020087","MEAN_MOTION_DDOT":"0.0000000000000","SEMIMAJOR_AXIS":"6925.342","PERIOD":"95.592","APOAPSIS":"548.083","PERIAPSIS":"546.330","OBJECT_TYPE":"PAYLOAD","RCS_SIZE":"LARGE","COUNTRY_CODE":"US","LAUNCH_DATE":"2020-01-07","SITE":"AFETR","DECAY_DATE":null,"FILE":"3944991","GP_ID":"234606407","TLE_LINE0":"0 STARLINK-1098","TLE_LINE1":"1 44917U 20001D   23179.13640185  .00020087  00000-0  13635-2 0  9995","TLE_LINE2":"2 44917  53.0530  90.9396 0001266  84.0518 276.0615 15.06402222191305"}]